OBJECT_NAME,OBJECT_ID,EPOCH,MEAN_MOTION,ECCENTRICITY,INCLINATION,RA_OF_ASC_NODE,ARG_OF_PERICENTER,MEAN_ANOMALY,EPHEMERIS_TYPE,CLASSIFICATION_TYPE,NORAD_CAT_ID,ELEMENT_SET_NO,REV_AT_EPOCH,BSTAR,MEAN_MOTION_DOT,MEAN_MOTION_DDOT
GSAT-7,2013-044B,2026-06-05T03:36:10.240128,1.00271083,.0002933,0.0563,104.1983,189.5270,87.9098,0,U,39234,999,4513,0,-.65E-6,0
AMOS-4,2013-045A,2026-06-05T03:33:32.992128,1.00272807,.0002642,0.0144,80.3784,330.0832,321.5159,0,U,39237,999,4683,0,.19E-6,0
AEHF-3 (USA 246),2013-050A,2026-06-04T21:31:27.964416,1.00269526,.0087843,5.2644,67.2931,188.0803,196.5718,0,U,39256,999,4553,0,.4E-6,0
ASTRA 2E,2013-056A,2026-06-05T03:23:11.484096,1.00273056,.00026,0.0577,338.6366,96.2700,257.9672,0,U,39285,999,4629,0,.163E-5,0
FM-6,2013-058A,2026-06-04T14:47:01.290624,1.00251470,.00021209,0.0096,36.6997,147.5696,174.2528,0,U,39360,999,4594,0,-.1E-7,0
RADUGA-1M 3,2013-062A,2026-06-04T17:56:00.523392,1.00274022,.00015788,5.9262,72.5137,274.5230,210.1480,0,U,39375,999,4598,0,.164E-5,0
SES-8,2013-071A,2026-06-04T08:52:46.443072,1.00270040,.00029731,0.0175,290.1835,150.0327,40.7899,0,U,39460,999,4430,0,-.257E-5,0
INMARSAT 5-F1,2013-073A,2026-06-04T15:34:18.789312,1.00272095,.00003859,0.0179,353.9450,355.1975,200.1749,0,U,39476,999,4545,0,.39E-6,0
TKSAT-1 (TUPAC KATARI),2013-075A,2026-06-05T02:50:12.957792,1.00273460,.0002782,0.0402,164.5883,260.9881,143.3385,0,U,39481,999,4548,0,-.183E-5,0
EXPRESS-AM5,2013-077A,2026-06-04T19:21:36.638784,1.00270241,.00006773,0.0127,285.7966,67.3013,330.5932,0,U,39487,999,4623,0,-.268E-5,0
GSAT-14,2014-001A,2026-06-04T18:44:40.941024,1.00271718,.0000919,0.0191,295.9980,18.8387,293.5610,0,U,39498,999,4525,0,-.65E-6,0
THAICOM 6,2014-002A,2026-06-05T03:37:25.121280,1.00270360,.0004641,0.0761,108.9193,351.8051,285.7354,0,U,39500,999,4533,0,-.109E-5,0
TDRS 12,2014-004A,2026-06-05T03:03:19.202112,1.00271801,.0002525,3.9651,18.8848,198.0537,41.5740,0,U,39504,999,4415,0,-.259E-5,0
ABS-2,2014-006A,2026-06-05T01:53:44.691072,1.00271954,.0004344,0.0161,44.2575,18.0101,294.6181,0,U,39508,999,4515,0,-.74E-6,0
ATHENA-FIDUS,2014-006B,2026-06-05T03:04:38.860320,1.00273797,.0001515,0.0335,90.9578,343.6324,262.9506,0,U,39509,999,4496,0,.166E-5,0
TURKSAT 4A,2014-007A,2026-06-05T03:37:38.548704,1.00274124,.000125,0.0615,290.1570,55.7422,4.1248,0,U,39522,999,4484,0,.158E-5,0
EXPRESS-AT1,2014-010A,2026-06-05T05:15:05.794848,1.00301415,.0003805,0.2269,85.9057,31.9654,275.5674,0,U,39612,999,4469,0,.48E-6,0
EXPRESS-AT2,2014-010B,2026-06-05T03:31:03.232416,1.00273197,.0000427,0.0128,287.0188,98.9505,336.3706,0,U,39613,999,4437,0,.91E-6,0
AMAZONAS 4A,2014-011A,2026-06-05T03:30:00.238176,1.00266868,.0004169,0.0692,210.2816,257.5708,124.1960,0,U,39616,999,4459,0,-.24E-5,0
ASTRA 5B,2014-011B,2026-06-05T03:21:41.628096,1.00273220,.0002263,0.0617,313.0568,114.8464,259.6241,0,U,39617,999,4454,0,.149E-5,0
IRNSS-1B,2014-017A,2026-05-19T20:39:38.653920,1.00280229,.00242269,28.9733,240.8911,185.2284,176.5740,0,U,39635,999,4451,0,.103E-5,0
LUCH-5V,2014-023A,2026-06-05T04:27:21.852576,1.00268963,.0002794,5.1037,69.8704,27.3598,317.9589,0,U,39727,999,4423,0,-.257E-5,0
KAZSAT-3,2014-023B,2026-06-04T22:23:44.357856,1.00271862,.0000218,0.0367,63.7368,8.2500,215.8193,0,U,39728,999,4233,0,.73E-6,0
EUTELSAT 3B,2014-030A,2026-06-05T03:15:57.178080,1.00272229,.0004173,0.0611,348.1508,88.0367,229.4713,0,U,39773,999,4394,0,.32E-6,0
ASIASAT 8 (AMOS-7),2014-046A,2026-06-05T00:19:42.337344,1.00273466,.0001693,0.0200,287.2590,141.7367,294.7047,0,U,40107,999,10202,0,-.321E-5,0
ASIASAT 6,2014-052A,2026-06-04T22:41:12.683616,1.00270129,.0001047,0.0166,307.1621,141.9195,264.5169,0,U,40141,999,4295,0,-.35E-5,0
OPTUS 10,2014-054A,2026-06-04T22:40:38.559072,1.00270881,.0002114,0.0980,28.0750,46.2526,315.2190,0,U,40146,999,4290,0,-.135E-5,0
MEASAT-3B,2014-054B,2026-06-04T12:17:10.891104,1.00268661,.00030603,0.0377,33.2081,35.0560,100.4621,0,U,40147,999,4278,0,-.229E-5,0
HIMAWARI-8,2014-060A,2026-06-04T22:47:12.109344,1.00272357,.0000958,0.0111,27.2628,63.2128,285.3895,0,U,40267,999,4263,0,-.263E-5,0
IRNSS-1C,2014-061A,2026-06-04T18:56:00.662784,1.00271289,.0022549,6.4870,89.1625,1.0591,170.0417,0,U,40269,999,4256,0,-.151E-5,0
INTELSAT 30 (IS-30),2014-062A,2026-06-04T21:39:57.148992,1.00268318,.0001113,0.0264,48.5331,350.9711,83.7621,0,U,40271,999,667,0,-.138E-5,0
ARSAT 1,2014-062B,2026-06-05T04:07:40.126080,1.00271369,.0001984,0.0376,58.0138,12.7669,172.9554,0,U,40272,999,4250,0,-.248E-5,0
