GSAT-7                  
1 39234U 13044B   26156.15011852 -.00000065  00000+0  00000+0 0  9996
2 39234   0.0563 104.1983 0002933 189.5270  87.9098  1.00271083 45138
AMOS-4                  
1 39237U 13045A   26156.14829852  .00000019  00000+0  00000+0 0  9994
2 39237   0.0144  80.3784 0002642 330.0832 321.5159  1.00272807 46832
AEHF-3 (USA 246)        
1 39256U 13050A   26155.89685144  .00000040  00000+0  00000+0 0  9990
2 39256   5.2644  67.2931 0087843 188.0803 196.5718  1.00269526 45539
ASTRA 2E                
1 39285U 13056A   26156.14110514  .00000163  00000+0  00000+0 0  9997
2 39285   0.0577 338.6366 0002600  96.2700 257.9672  1.00273056 46298
FM-6                    
1 39360U 13058A   26155.61598716 -.00000001  00000+0  00000+0 0  9990
2 39360   0.0096  36.6997 0002120 147.5696 174.2528  1.00251470 45942
RADUGA-1M 3             
1 39375U 13062A   26155.74722828  .00000164  00000+0  00000+0 0  9997
2 39375   5.9262  72.5137 0001578 274.5230 210.1480  1.00274022 45982
SES-8                   
1 39460U 13071A   26155.36998198 -.00000257  00000+0  00000+0 0  9999
2 39460   0.0175 290.1835 0002973 150.0327  40.7899  1.00270040 44306
INMARSAT 5-F1           
1 39476U 13073A   26155.64882858  .00000039  00000+0  00000+0 0  9991
2 39476   0.0179 353.9450 0000385 355.1975 200.1749  1.00272095 45455
TKSAT-1 (TUPAC KATARI)  
1 39481U 13075A   26156.11820553 -.00000183  00000+0  00000+0 0  9997
2 39481   0.0402 164.5883 0002782 260.9881 143.3385  1.00273460 45482
EXPRESS-AM5             
1 39487U 13077A   26155.80667406 -.00000268  00000+0  00000+0 0  9990
2 39487   0.0127 285.7966 0000677  67.3013 330.5932  1.00270241 46233
GSAT-14                 
1 39498U 14001A   26155.78102941 -.00000065  00000+0  00000+0 0  9990
2 39498   0.0191 295.9980 0000919  18.8387 293.5610  1.00271718 45251
THAICOM 6               
1 39500U 14002A   26156.15098520 -.00000109  00000+0  00000+0 0  9993
2 39500   0.0761 108.9193 0004641 351.8051 285.7354  1.00270360 45330
TDRS 12                 
1 39504U 14004A   26156.12730558 -.00000259  00000+0  00000+0 0  9996
2 39504   3.9651  18.8848 0002525 198.0537  41.5740  1.00271801 44156
ABS-2                   
1 39508U 14006A   26156.07898948 -.00000074  00000+0  00000+0 0  9999
2 39508   0.0161  44.2575 0004344  18.0101 294.6181  1.00271954 45153
ATHENA-FIDUS            
1 39509U 14006B   26156.12822755  .00000166  00000+0  00000+0 0  9990
2 39509   0.0335  90.9578 0001515 343.6324 262.9506  1.00273797 44963
TURKSAT 4A              
1 39522U 14007A   26156.15114061  .00000158  00000+0  00000+0 0  9994
2 39522   0.0615 290.1570 0001250  55.7422   4.1248  1.00274124 44842
EXPRESS-AT1             
1 39612U 14010A   26156.21881707  .00000048  00000+0  00000+0 0  9991
2 39612   0.2269  85.9057 0003805  31.9654 275.5674  1.00301415 44694
EXPRESS-AT2             
1 39613U 14010B   26156.14656519  .00000091  00000+0  00000+0 0  9993
2 39613   0.0128 287.0188 0000427  98.9505 336.3706  1.00273197 44374
AMAZONAS 4A             
1 39616U 14011A   26156.14583609 -.00000240  00000+0  00000+0 0  9993
2 39616   0.0692 210.2816 0004169 257.5708 124.1960  1.00266868 44590
ASTRA 5B                
1 39617U 14011B   26156.14006514  .00000149  00000+0  00000+0 0  9996
2 39617   0.0617 313.0568 0002263 114.8464 259.6241  1.00273220 44542
IRNSS-1B                
1 39635U 14017A   26139.86086405  .00000103  00000+0  00000+0 0  9999
2 39635  28.9733 240.8911 0024226 185.2284 176.5740  1.00280229 44519
LUCH-5V                 
1 39727U 14023A   26156.18566959 -.00000257  00000+0  00000+0 0  9990
2 39727   5.1037  69.8704 0002794  27.3598 317.9589  1.00268963 44236
KAZSAT-3                
1 39728U 14023B   26155.93315229  .00000073  00000+0  00000+0 0  9990
2 39728   0.0367  63.7368 0000218   8.2500 215.8193  1.00271862 42334
EUTELSAT 3B             
1 39773U 14030A   26156.13607845  .00000032  00000+0  00000+0 0  9994
2 39773   0.0611 348.1508 0004173  88.0367 229.4713  1.00272229 43948
ASIASAT 8 (AMOS-7)      
1 40107U 14046A   26156.01368446 -.00000321  00000+0  00000+0 0  9994
2 40107   0.0200 287.2590 0001693 141.7367 294.7047  1.00273466102024
ASIASAT 6               
1 40141U 14052A   26155.94528569 -.00000350  00000+0  00000+0 0  9996
2 40141   0.0166 307.1621 0001047 141.9195 264.5169  1.00270129 42952
OPTUS 10                
1 40146U 14054A   26155.94489073 -.00000135  00000+0  00000+0 0  9990
2 40146   0.0980  28.0750 0002114  46.2526 315.2190  1.00270881 42902
MEASAT-3B               
1 40147U 14054B   26155.51193161 -.00000229  00000+0  00000+0 0  9998
2 40147   0.0377  33.2081 0003060  35.0560 100.4621  1.00268661 42785
HIMAWARI-8              
1 40267U 14060A   26155.94944571 -.00000263  00000+0  00000+0 0  9992
2 40267   0.0111  27.2628 0000958  63.2128 285.3895  1.00272357 42637
IRNSS-1C                
1 40269U 14061A   26155.78889656 -.00000151  00000+0  00000+0 0  9995
2 40269   6.4870  89.1625 0022549   1.0591 170.0417  1.00271289 42564
INTELSAT 30 (IS-30)     
1 40271U 14062A   26155.90274478 -.00000138  00000+0  00000+0 0  9998
2 40271   0.0264  48.5331 0001113 350.9711  83.7621  1.00268318  6679
ARSAT 1                 
1 40272U 14062B   26156.17199220 -.00000248  00000+0  00000+0 0  9992
2 40272   0.0376  58.0138 0001984  12.7669 172.9554  1.00271369 42504
